CCSDS_OMM_VERS = 2.0
CREATION_DATE  = 
ORIGINATOR     = 

OBJECT_NAME    = STARLINK-36714
OBJECT_ID      = 2026-036W
CENTER_NAME    = EARTH
REF_FRAME      = TEME
TIME_SYSTEM    = UTC
MEAN_ELEMENT_THEORY = SGP/SGP4

EPOCH          = 2026-02-28T04:00:01.999584
MEAN_MOTION    = 15.96333365
ECCENTRICITY   = .0001931
INCLINATION    = 42.9972
RA_OF_ASC_NODE = 308.2630
ARG_OF_PERICENTER = 273.6832
MEAN_ANOMALY   = 342.6264

EPHEMERIS_TYPE = 0
CLASSIFICATION_TYPE = U
NORAD_CAT_ID   = 67924
ELEMENT_SET_NO = 999
REV_AT_EPOCH   = 211
BSTAR          = -.31873E-2
MEAN_MOTION_DOT = -.1378918E-1
MEAN_MOTION_DDOT = .56769E-3

CCSDS_OMM_VERS = 2.0
CREATION_DATE  = 
ORIGINATOR     = 

OBJECT_NAME    = STARLINK-36726
OBJECT_ID      = 2026-036X
CENTER_NAME    = EARTH
REF_FRAME      = TEME
TIME_SYSTEM    = UTC
MEAN_ELEMENT_THEORY = SGP/SGP4

EPOCH          = 2026-02-28T04:00:01.999584
MEAN_MOTION    = 15.96459887
ECCENTRICITY   = .0001926
INCLINATION    = 42.9972
RA_OF_ASC_NODE = 308.2590
ARG_OF_PERICENTER = 275.5206
MEAN_ANOMALY   = 342.4067

EPHEMERIS_TYPE = 0
CLASSIFICATION_TYPE = U
NORAD_CAT_ID   = 67925
ELEMENT_SET_NO = 999
REV_AT_EPOCH   = 211
BSTAR          = -.31387E-2
MEAN_MOTION_DOT = -.1367498E-1
MEAN_MOTION_DDOT = .55983E-3

CCSDS_OMM_VERS = 2.0
CREATION_DATE  = 
ORIGINATOR     = 

OBJECT_NAME    = STARLINK-36758
OBJECT_ID      = 2026-036Y
CENTER_NAME    = EARTH
REF_FRAME      = TEME
TIME_SYSTEM    = UTC
MEAN_ELEMENT_THEORY = SGP/SGP4

EPOCH          = 2026-02-28T04:00:01.999584
MEAN_MOTION    = 15.96600223
ECCENTRICITY   = .000188
INCLINATION    = 42.9971
RA_OF_ASC_NODE = 308.2542
ARG_OF_PERICENTER = 275.2214
MEAN_ANOMALY   = 344.5453

EPHEMERIS_TYPE = 0
CLASSIFICATION_TYPE = U
NORAD_CAT_ID   = 67926
ELEMENT_SET_NO = 999
REV_AT_EPOCH   = 211
BSTAR          = -.31108E-2
MEAN_MOTION_DOT = -.1365816E-1
MEAN_MOTION_DDOT = .55937E-3

CCSDS_OMM_VERS = 2.0
CREATION_DATE  = 
ORIGINATOR     = 

OBJECT_NAME    = STARLINK-36728
OBJECT_ID      = 2026-036Z
CENTER_NAME    = EARTH
REF_FRAME      = TEME
TIME_SYSTEM    = UTC
MEAN_ELEMENT_THEORY = SGP/SGP4

EPOCH          = 2026-02-28T04:00:01.999584
MEAN_MOTION    = 15.96890445
ECCENTRICITY   = .000194
INCLINATION    = 42.9971
RA_OF_ASC_NODE = 308.2441
ARG_OF_PERICENTER = 274.7840
MEAN_ANOMALY   = 348.9122

EPHEMERIS_TYPE = 0
CLASSIFICATION_TYPE = U
NORAD_CAT_ID   = 67927
ELEMENT_SET_NO = 999
REV_AT_EPOCH   = 211
BSTAR          = -.30597E-2
MEAN_MOTION_DOT = -.1365068E-1
MEAN_MOTION_DDOT = .56048E-3

CCSDS_OMM_VERS = 2.0
CREATION_DATE  = 
ORIGINATOR     = 

OBJECT_NAME    = STARLINK-36771
OBJECT_ID      = 2026-036AA
CENTER_NAME    = EARTH
REF_FRAME      = TEME
TIME_SYSTEM    = UTC
MEAN_ELEMENT_THEORY = SGP/SGP4

EPOCH          = 2026-02-28T04:00:01.999584
MEAN_MOTION    = 15.96752017
ECCENTRICITY   = .0001954
INCLINATION    = 42.9969
RA_OF_ASC_NODE = 308.2485
ARG_OF_PERICENTER = 275.4048
MEAN_ANOMALY   = 346.5317

EPHEMERIS_TYPE = 0
CLASSIFICATION_TYPE = U
NORAD_CAT_ID   = 67928
ELEMENT_SET_NO = 999
REV_AT_EPOCH   = 211
BSTAR          = -.30882E-2
MEAN_MOTION_DOT = -.1367275E-1
MEAN_MOTION_DDOT = .56134E-3

CCSDS_OMM_VERS = 2.0
CREATION_DATE  = 
ORIGINATOR     = 

OBJECT_NAME    = STARLINK-36809
OBJECT_ID      = 2026-036AB
CENTER_NAME    = EARTH
REF_FRAME      = TEME
TIME_SYSTEM    = UTC
MEAN_ELEMENT_THEORY = SGP/SGP4

EPOCH          = 2026-02-28T04:00:01.999584
MEAN_MOTION    = 15.97028379
ECCENTRICITY   = .0001881
INCLINATION    = 42.9969
RA_OF_ASC_NODE = 308.2394
ARG_OF_PERICENTER = 268.1747
MEAN_ANOMALY   = 357.4340

EPHEMERIS_TYPE = 0
CLASSIFICATION_TYPE = U
NORAD_CAT_ID   = 67929
ELEMENT_SET_NO = 999
REV_AT_EPOCH   = 211
BSTAR          = -.30224E-2
MEAN_MOTION_DOT = -.1358809E-1
MEAN_MOTION_DDOT = .55657E-3

CCSDS_OMM_VERS = 2.0
CREATION_DATE  = 
ORIGINATOR     = 

OBJECT_NAME    = STARLINK-36865
OBJECT_ID      = 2026-036AC
CENTER_NAME    = EARTH
REF_FRAME      = TEME
TIME_SYSTEM    = UTC
MEAN_ELEMENT_THEORY = SGP/SGP4

EPOCH          = 2026-02-28T04:00:01.999584
MEAN_MOTION    = 15.97305830
ECCENTRICITY   = .0001972
INCLINATION    = 42.9968
RA_OF_ASC_NODE = 308.2295
ARG_OF_PERICENTER = 273.3256
MEAN_ANOMALY   = 356.1396

EPHEMERIS_TYPE = 0
CLASSIFICATION_TYPE = U
NORAD_CAT_ID   = 67930
ELEMENT_SET_NO = 999
REV_AT_EPOCH   = 211
BSTAR          = -.29517E-2
MEAN_MOTION_DOT = -.1347732E-1
MEAN_MOTION_DDOT = .54986E-3

CCSDS_OMM_VERS = 2.0
CREATION_DATE  = 
ORIGINATOR     = 

OBJECT_NAME    = STARLINK-36781
OBJECT_ID      = 2026-036AD
CENTER_NAME    = EARTH
REF_FRAME      = TEME
TIME_SYSTEM    = UTC
MEAN_ELEMENT_THEORY = SGP/SGP4

EPOCH          = 2026-02-28T04:00:01.999584
MEAN_MOTION    = 15.97168474
ECCENTRICITY   = .0001967
INCLINATION    = 42.9971
RA_OF_ASC_NODE = 308.2346
ARG_OF_PERICENTER = 276.2583
MEAN_ANOMALY   = 351.2499

EPHEMERIS_TYPE = 0
CLASSIFICATION_TYPE = U
NORAD_CAT_ID   = 67931
ELEMENT_SET_NO = 999
REV_AT_EPOCH   = 211
BSTAR          = -.30031E-2
MEAN_MOTION_DOT = -.1360633E-1
MEAN_MOTION_DDOT = .55875E-3

