STARLINK-36714          
1 67924U 26036W   26059.16668981 -.01378918  56769-3 -31873-2 0  9991
2 67924  42.9972 308.2630 0001931 273.6832 342.6264 15.96333365  2115
STARLINK-36726          
1 67925U 26036X   26059.16668981 -.01367498  55983-3 -31387-2 0  9990
2 67925  42.9972 308.2590 0001926 275.5206 342.4067 15.96459887  2118
STARLINK-36758          
1 67926U 26036Y   26059.16668981 -.01365816  55937-3 -31108-2 0  9993
2 67926  42.9971 308.2542 0001880 275.2214 344.5453 15.96600223  2114
STARLINK-36728          
1 67927U 26036Z   26059.16668981 -.01365068  56048-3 -30597-2 0  9998
2 67927  42.9971 308.2441 0001940 274.7840 348.9122 15.96890445  2117
STARLINK-36771          
1 67928U 26036AA  26059.16668981 -.01367275  56134-3 -30882-2 0  9994
2 67928  42.9969 308.2485 0001954 275.4048 346.5317 15.96752017  2118
STARLINK-36809          
1 67929U 26036AB  26059.16668981 -.01358809  55657-3 -30224-2 0  9997
2 67929  42.9969 308.2394 0001881 268.1747 357.4340 15.97028379  2117
STARLINK-36865          
1 67930U 26036AC  26059.16668981 -.01347732  54986-3 -29517-2 0  9999
2 67930  42.9968 308.2295 0001972 273.3256 356.1396 15.97305830  2119
STARLINK-36781          
1 67931U 26036AD  26059.16668981 -.01360633  55875-3 -30031-2 0  9996
2 67931  42.9971 308.2346 0001967 276.2583 351.2499 15.97168474  2111
